QIANFAN-17              
1 60395U 24140S   25216.82402362  .00000123  00000+0  17132-3 0  9999
2 60395  88.9855 312.8474 0014159 213.6522 146.3731 13.50961713 49743
QIANFAN-18              
1 60396U 24140T   25216.80356974  .00000130  00000+0  18312-3 0  9994
2 60396  88.9847 312.3932 0014126 195.5295 164.5425 13.50963502 49973
QIANFAN-19              
1 61552U 24185A   25216.60549441  .00000364  00000+0  18364-3 0  9995
2 61552  88.9803  92.8732 0007936  20.1682 339.9817 14.14117074 51277
QIANFAN-20              
1 61553U 24185B   25216.91629243  .00000277  00000+0  15277-3 0  9992
2 61553  88.9802  93.0303 0007934  50.3051 309.8831 14.08669001 51218
QIANFAN-21              
1 61554U 24185C   25216.89391259  .00000459  00000+0  19982-3 0  9992
2 61554  88.9716  92.2081 0013077  68.6390 291.6195 14.22364461 51512
QIANFAN-22              
1 61555U 24185D   25216.57610471  .00000099  00000+0  74410-4 0  9996
2 61555  88.9788  93.5263 0008442  43.9191 316.2650 13.86236670 50904
QIANFAN-23              
1 61556U 24185E   25216.62210310  .00000405  00000+0  19788-3 0  9998
2 61556  88.9795  92.7411 0009183  29.4032 330.7671 14.16088674 51330
QIANFAN-24              
1 61557U 24185F   25216.58452899  .00000388  00000+0  16416-3 0  9999
2 61557  88.9776  92.3637 0010355  16.5044 343.6483 14.23566868 51506
